COSMOS 2433 (720)       
1 32275U 07052A   24033.60305105 -.00000058  00000+0  00000+0 0  9997
2 32275  65.9814 344.9018 0004221 276.8984  83.0597  2.13103998126610
COSMOS 2432 (719)       
1 32276U 07052B   24033.83916322 -.00000058  00000+0  00000+0 0  9992
2 32276  65.9960 345.0054 0012076 323.6128 164.1090  2.13103305126647
COSMOS 2434 (721)       
1 32393U 07065A   24033.74676502  .00000118  00000+0  00000+0 0  9995
2 32393  64.3264 221.1650 0005106  75.2494 286.6921  2.13103181125335
COSMOS 2436 (723)       
1 32395U 07065C   24032.15813247  .00000102  00000+0  00000+0 0  9993
2 32395  64.3354 221.2822 0017253   9.5495 348.9637  2.13102888125245
COSMOS 2456 (730)       
1 36111U 09070A   24032.13926785 -.00000006  00000+0  00000+0 0  9995
2 36111  64.5506 100.6612 0004586 296.0408  69.5498  2.13098982109955
COSMOS 2457 (733)       
1 36112U 09070B   24033.86124882 -.00000007  00000+0  00000+0 0  9996
2 36112  64.5357 100.4639 0004524 182.2620 196.3384  2.13101150109990
COSMOS 2460 (732)       
1 36402U 10007C   24031.25158015 -.00000062  00000+0  00000+0 0  9997
2 36402  65.8414 343.6701 0002544 318.6445 208.1111  2.13106299108236
COSMOS 2476 (744)       
1 37867U 11064A   24033.65788156 -.00000007  00000+0  00000+0 0  9997
2 37867  64.8280 102.1936 0024028 237.3229 123.9233  2.13101647 95324
COSMOS 2477 (745)       
1 37868U 11064B   24033.41993851 -.00000007  00000+0  00000+0 0  9992
2 37868  64.8353 102.2726 0021222 238.2390 118.2549  2.13101440 95302
COSMOS 2475 (743)       
1 37869U 11064C   24031.15427128 -.00000003  00000+0  00000+0 0  9997
2 37869  64.8414 102.3634 0025877 252.8771 124.0869  2.13101659 95273
COSMOS 2485 (747)       
1 39155U 13019A   24032.65968593 -.00000006  00000+0  00000+0 0  9994
2 39155  64.9865 102.7831 0024301 233.3931 126.4462  2.13101687 83813
COSMOS 2492 (754)       
1 39620U 14012A   24033.55360003 -.00000059  00000+0  00000+0 0  9995
2 39620  65.7232 343.1899 0015054 320.6731  39.2246  2.13103143 76794
COSMOS 2500 (755)       
1 40001U 14032A   24033.73484356 -.00000059  00000+0  00000+0 0  9990
2 40001  65.6609 342.9995 0005878 225.0543 134.9054  2.13106143 75019
COSMOS 2501 (702K)      
1 40315U 14075A   24030.70177476  .00000084  00000+0  00000+0 0  9998
2 40315  63.6290 220.4920 0018081 203.3051 156.6321  2.13101425 71340
COSMOS 2514 (751)       
1 41330U 16008A   24033.49909065 -.00000060  00000+0  00000+0 0  9995
2 41330  65.4569 342.5510 0009935 224.9274 135.0000  2.13102649 62177
COSMOS 2522 (752)       
1 42939U 17055A   24033.80946876  .00000118  00000+0  00000+0 0  9993
2 42939  64.0896 221.3967 0005271 229.5647 130.4152  2.13101989 49533
COSMOS 2527 (756)       
1 43508U 18053A   24033.76830514 -.00000006  00000+0  00000+0 0  9998
2 43508  65.1476 102.8695 0009554 234.2153 125.7575  2.13102392 43838
COSMOS 2529 (757)       
1 43687U 18086A   24031.99049283  .00000100  00000+0  00000+0 0  9994
2 43687  64.3049 221.9348 0006582 265.1369  94.8110  2.13102116 40800
COSMOS 2534 (758)       
1 44299U 19030A   24033.32864660  .00000114  00000+0  00000+0 0  9992
2 44299  64.3780 221.8301 0009290 292.7966 147.9397  2.13102133 36472
COSMOS 2544 (759)       
1 44850U 19088A   24032.77367980 -.00000006  00000+0  00000+0 0  9990
2 44850  65.1335 102.7427 0014478 255.8728 104.0294  2.13102146 32252
COSMOS 2545 (760)       
1 45358U 20018A   24032.97053855 -.00000061  00000+0  00000+0 0  9995
2 45358  64.7974 342.6911 0010241 259.0577 100.8349  2.13102573 30207
COSMOS 2547 (705K)      
1 46805U 20075A   24031.75101843  .00000098  00000+0  00000+0 0  9991
2 46805  64.6061 221.4839 0005321 234.5253 125.4472  2.13103044 25428
COSMOS 2557 (706K)      
1 52984U 22075A   24033.32240161 -.00000060  00000+0  00000+0 0  9990
2 52984  64.7191 344.8223 0013544 285.1749  74.6819  2.13101776 12261
COSMOS 2559 (707K)      
1 54031U 22130A   24032.32634418 -.00000062  00000+0  00000+0 0  9990
2 54031  64.6908 344.9793 0006528 239.3226 120.6192  2.13101169 10214
COSMOS 2564 (761)       
1 54377U 22161A   24033.45704806  .00000116  00000+0  00000+0 0  9990
2 54377  64.7472 221.5069 0007261 205.7761 154.2134  2.13102189  9182
COSMOS 2569 (703K)      
1 57517U 23114A   24031.12913898 -.00000003  00000+0  00000+0 0  9999
2 57517  64.8577 101.9975 0011509 291.5801  68.3635  2.13104316  3766
